{
  "type": "FeatureCollection",
  "features": [
    {
      "type": "Feature",
      "properties": {
        "norad_id": 41890,
        "name": "CYGFM07",
        "group": "weather",
        "lat": -19.94685023562925,
        "lon": -121.48143670796374,
        "alt_km": 411.37825502535816,
        "timestamp": "2025-12-11T20:41:14.730929+00:00",
        "meta_object_name": "CYGFM07",
        "meta_object_id": "2016-078G",
        "meta_epoch": "2025-12-11T12:01:43.381056",
        "meta_mean_motion": 15.49925306,
        "meta_eccentricity": 0.00097414,
        "meta_inclination": 34.9484,
        "meta_ra_of_asc_node": 29.5736,
        "meta_arg_of_pericenter": 205.3606,
        "meta_mean_anomaly": 154.6639,
        "meta_ephemeris_type": 0,
        "meta_classification_type": "U",
        "meta_norad_cat_id": 41890,
        "meta_element_set_no": 999,
        "meta_rev_at_epoch": 49976,
        "meta_bstar": 0.00063492627,
        "meta_mean_motion_dot": 0.00036799,
        "meta_mean_motion_ddot": 0,
        "tle_line1": "1 41890U 16078G   25345.50119654  .00036799  00000+0  63493-3 0  9995",
        "tle_line2": "2 41890  34.9484  29.5736 0009741 205.3606 154.6639 15.49925306499764"
      },
      "geometry": {
        "type": "Point",
        "coordinates": [
          -121.48143670796374,
          -19.94685023562925
        ]
      }
    },
    {
      "type": "Feature",
      "properties": {
        "norad_id": 41891,
        "name": "CYGFM03",
        "group": "weather",
        "lat": 26.590832854844525,
        "lon": 74.92488773753442,
        "alt_km": 417.09922986919355,
        "timestamp": "2025-12-11T20:41:14.730939+00:00",
        "meta_object_name": "CYGFM03",
        "meta_object_id": "2016-078H",
        "meta_epoch": "2025-12-11T11:11:26.566080",
        "meta_mean_motion": 15.49822944,
        "meta_eccentricity": 0.00091164,
        "meta_inclination": 34.9435,
        "meta_ra_of_asc_node": 31.7202,
        "meta_arg_of_pericenter": 192.4174,
        "meta_mean_anomaly": 167.6324,
        "meta_ephemeris_type": 0,
        "meta_classification_type": "U",
        "meta_norad_cat_id": 41891,
        "meta_element_set_no": 999,
        "meta_rev_at_epoch": 49973,
        "meta_bstar": 0.00063877072,
        "meta_mean_motion_dot": 0.0003688,
        "meta_mean_motion_ddot": 0,
        "tle_line1": "1 41891U 16078H   25345.46627970  .00036880  00000+0  63877-3 0  9993",
        "tle_line2": "2 41891  34.9435  31.7202 0009116 192.4174 167.6324 15.49822944499732"
      },
      "geometry": {
        "type": "Point",
        "coordinates": [
          74.92488773753442,
          26.590832854844525
        ]
      }
    },
    {
      "type": "Feature",
      "properties": {
        "norad_id": 43010,
        "name": "FENGYUN 3D",
        "group": "weather",
        "lat": -23.754289550163637,
        "lon": 128.16397821802153,
        "alt_km": 831.2443201947881,
        "timestamp": "2025-12-11T20:41:14.730950+00:00",
        "meta_object_name": "FENGYUN 3D",
        "meta_object_id": "2017-072A",
        "meta_epoch": "2025-12-11T14:39:19.109376",
        "meta_mean_motion": 14.19683676,
        "meta_eccentricity": 8.805e-05,
        "meta_inclination": 98.9894,
        "meta_ra_of_asc_node": 311.9037,
        "meta_arg_of_pericenter": 186.2777,
        "meta_mean_anomaly": 173.8387,
        "meta_ephemeris_type": 0,
        "meta_classification_type": "U",
        "meta_norad_cat_id": 43010,
        "meta_element_set_no": 999,
        "meta_rev_at_epoch": 41837,
        "meta_bstar": 0.00019779859,
        "meta_mean_motion_dot": 3.72e-06,
        "meta_mean_motion_ddot": 0,
        "tle_line1": "1 43010U 17072A   25345.61063784  .00000372  00000+0  19780-3 0  9998",
        "tle_line2": "2 43010  98.9894 311.9037 0000880 186.2777 173.8387 14.19683676418376"
      },
      "geometry": {
        "type": "Point",
        "coordinates": [
          128.16397821802153,
          -23.754289550163637
        ]
      }
    },
    {
      "type": "Feature",
      "properties": {
        "norad_id": 43013,
        "name": "NOAA 20 (JPSS-1)",
        "group": "weather",
        "lat": -3.2946357551672585,
        "lon": -77.32318655158572,
        "alt_km": 830.3251314707104,
        "timestamp": "2025-12-11T20:41:14.730961+00:00",
        "meta_object_name": "NOAA 20 (JPSS-1)",
        "meta_object_id": "2017-073A",
        "meta_epoch": "2025-12-11T13:56:11.248800",
        "meta_mean_motion": 14.19525254,
        "meta_eccentricity": 0.00021511,
        "meta_inclination": 98.7597,
        "meta_ra_of_asc_node": 281.8901,
        "meta_arg_of_pericenter": 88.886,
        "meta_mean_anomaly": 271.2562,
        "meta_ephemeris_type": 0,
        "meta_classification_type": "U",
        "meta_norad_cat_id": 43013,
        "meta_element_set_no": 999,
        "meta_rev_at_epoch": 41785,
        "meta_bstar": 0.00010536206,
        "meta_mean_motion_dot": 1.78e-06,
        "meta_mean_motion_ddot": 0,
        "tle_line1": "1 43013U 17073A   25345.58068575  .00000178  00000+0  10536-3 0  9995",
        "tle_line2": "2 43013  98.7597 281.8901 0002151  88.8860 271.2562 14.19525254417852"
      },
      "geometry": {
        "type": "Point",
        "coordinates": [
          -77.32318655158572,
          -3.2946357551672585
        ]
      }
    },
    {
      "type": "Feature",
      "properties": {
        "norad_id": 43226,
        "name": "GOES 17",
        "group": "weather",
        "lat": -0.257257257370749,
        "lon": -58.355099302177734,
        "alt_km": 35773.43742231216,
        "timestamp": "2025-12-11T20:41:14.730973+00:00",
        "meta_object_name": "GOES 17",
        "meta_object_id": "2018-022A",
        "meta_epoch": "2025-12-11T13:05:10.006944",
        "meta_mean_motion": 1.00271649,
        "meta_eccentricity": 0.00033181,
        "meta_inclination": 0.4571,
        "meta_ra_of_asc_node": 89.1199,
        "meta_arg_of_pericenter": 187.8173,
        "meta_mean_anomaly": 270.3648,
        "meta_ephemeris_type": 0,
        "meta_classification_type": "U",
        "meta_norad_cat_id": 43226,
        "meta_element_set_no": 999,
        "meta_rev_at_epoch": 2854,
        "meta_bstar": 0,
        "meta_mean_motion_dot": -1.75e-06,
        "meta_mean_motion_ddot": 0,
        "tle_line1": "1 43226U 18022A   25345.54525471 -.00000175  00000+0  00000+0 0  9994",
        "tle_line2": "2 43226   0.4571  89.1199 0003318 187.8173 270.3648  1.00271649 28542"
      },
      "geometry": {
        "type": "Point",
        "coordinates": [
          -58.355099302177734,
          -0.257257257370749
        ]
      }
    },
    {
      "type": "Feature",
      "properties": {
        "norad_id": 43491,
        "name": "FENGYUN 2H",
        "group": "weather",
        "lat": 1.2550915257945978,
        "lon": 110.43769853265482,
        "alt_km": 35795.045029079054,
        "timestamp": "2025-12-11T20:41:14.730985+00:00",
        "meta_object_name": "FENGYUN 2H",
        "meta_object_id": "2018-050A",
        "meta_epoch": "2025-12-11T15:36:03.056832",
        "meta_mean_motion": 1.00271106,
        "meta_eccentricity": 0.00028748,
        "meta_inclination": 2.5484,
        "meta_ra_of_asc_node": 81.3377,
        "meta_arg_of_pericenter": 166.2639,
        "meta_mean_anomaly": 146.3783,
        "meta_ephemeris_type": 0,
        "meta_classification_type": "U",
        "meta_norad_cat_id": 43491,
        "meta_element_set_no": 999,
        "meta_rev_at_epoch": 2755,
        "meta_bstar": 0,
        "meta_mean_motion_dot": -1.22e-06,
        "meta_mean_motion_ddot": 0,
        "tle_line1": "1 43491U 18050A   25345.65003538 -.00000122  00000+0  00000+0 0  9998",
        "tle_line2": "2 43491   2.5484  81.3377 0002874 166.2639 146.3783  1.00271106 27558"
      },
      "geometry": {
        "type": "Point",
        "coordinates": [
          110.43769853265482,
          1.2550915257945978
        ]
      }
    },
    {
      "type": "Feature",
      "properties": {
        "norad_id": 43689,
        "name": "METOP-C",
        "group": "weather",
        "lat": 47.53620205999606,
        "lon": -126.7311194577736,
        "alt_km": 816.1034741578096,
        "timestamp": "2025-12-11T20:41:14.731003+00:00",
        "meta_object_name": "METOP-C",
        "meta_object_id": "2018-087A",
        "meta_epoch": "2025-12-11T15:00:08.228736",
        "meta_mean_motion": 14.21483684,
        "meta_eccentricity": 0.00012877,
        "meta_inclination": 98.6931,
        "meta_ra_of_asc_node": 43.4119,
        "meta_arg_of_pericenter": 40.5923,
        "meta_mean_anomaly": 319.535,
        "meta_ephemeris_type": 0,
        "meta_classification_type": "U",
        "meta_norad_cat_id": 43689,
        "meta_element_set_no": 999,
        "meta_rev_at_epoch": 36818,
        "meta_bstar": 0.00011628051,
        "meta_mean_motion_dot": 2.11e-06,
        "meta_mean_motion_ddot": 0,
        "tle_line1": "1 43689U 18087A   25345.62509524  .00000211  00000+0  11628-3 0  9990",
        "tle_line2": "2 43689  98.6931  43.4119 0001287  40.5923 319.5350 14.21483684368184"
      },
      "geometry": {
        "type": "Point",
        "coordinates": [
          -126.7311194577736,
          47.53620205999606
        ]
      }
    }
  ]
}